{"fetched_at":"2026-04-04T12:51:47Z","count":1222,"tles":[{"name":"COSMOS 2475 (743)","line1":"1 37869U 11064C   26092.47987737 -.00000001  00000+0  00000+0 0  9996","line2":"2 37869  65.2414  75.5251 0027830 255.4078 284.8639  2.13101572112155","category":"Other"},{"name":"COSMOS 2544 (759)","line1":"1 44850U 19088A   26092.47821141  .00000001  00000+0  00000+0 0  9993","line2":"2 44850  65.5087  76.2399 0013076 256.6381 103.2057  2.13086826 49106","category":"Other"},{"name":"SWARM A","line1":"1 39452U 13067B   26093.91733476  .00020245  00000+0  36811-3 0  9994","line2":"2 39452  87.3284  83.8000 0003512  95.5720 264.5941 15.49399523694746","category":"Other"},{"name":"PLEIADES NEO 3","line1":"1 48268U 21034A   26091.87392873  .00000385  00000+0  55493-4 0  9998","line2":"2 48268  97.8936 167.7361 0001250  90.1149 270.0207 14.81673242266353","category":"Other"},{"name":"JILIN-1 03","line1":"1 41914U 17002B   26093.91840809  .00025848  00000+0  65252-3 0  9997","line2":"2 41914  97.1982 102.1406 0008193  85.4339 274.7843 15.39780112510428","category":"Other"},{"name":"AVION KALUGA 650","line1":"1 57195U 23091AF  26093.90205223  .00011861  00000+0  55940-3 0  9997","line2":"2 57195  97.5162 153.7956 0010714  18.6084 341.5540 15.19581122152741","category":"Other"},{"name":"ORBCOMM FM117","line1":"1 41188U 15081K   26093.60005707  .00001449  00000+0  34331-3 0  9996","line2":"2 41188  47.0005 173.4725 0003864 229.8212 130.2335 14.58785695549234","category":"Other"},{"name":"STARLINK-11244 [DTC]","line1":"1 60926U 24155C   26093.72641928 -.00007097  00000+0 -53886-4 0  9997","line2":"2 60926  53.1592 217.9067 0000797  79.3510 280.7598 15.69661016 92382","category":"Starlink"},{"name":"CUTE-1.7+APD II (CO-65)","line1":"1 32785U 08021C   26093.91909722  .00010821  00000+0  69262-3 0  9994","line2":"2 32785  97.8239  73.8558 0007086 284.9882  75.0561 15.08741690973995","category":"Other"},{"name":"STARLINK-11276 [DTC]","line1":"1 61244U 24175B   26093.94553891 -.00000624  00000+0 -29268-6 0  9996","line2":"2 61244  53.1578 291.7289 0001324 117.4704 242.6448 15.69703496 87331","category":"Starlink"},{"name":"CONNECTA IOT-5","line1":"1 62703U 25009CY  26093.75521912  .00002342  00000+0  22179-3 0  9990","line2":"2 62703  97.7040 173.7529 0001297 346.1700  13.9485 14.94572899 66258","category":"Other"},{"name":"GEOSCAN 4 (RS92S4)","line1":"1 64892U 25155S   26093.94532322  .00030705  00000+0  10133-2 0  9991","line2":"2 64892  97.4501  62.8879 0008759  89.2002 271.0242 15.31327318 69453","category":"Other"},{"name":"ONEWEB-0639","line1":"1 55803U 23029H   26093.65563712  .00000074  00000+0  15140-3 0  9996","line2":"2 55803  87.9190 319.8375 0002777  83.3525 276.7924 13.19727172149070","category":"Other"},{"name":"JILIN-1 07","line1":"1 43159U 18008E   26093.92968374  .00016629  00000+0  51460-3 0  9999","line2":"2 43159  97.1836 115.8810 0007258 338.5956  21.4983 15.33522404453618","category":"Other"},{"name":"SHIJIAN-6 03B (SJ-6 03B)","line1":"1 33409U 08053B   26093.99398517  .00002650  00000+0  19561-3 0  9993","line2":"2 33409  97.8631 112.6478 0018254 292.8210  67.1087 15.04053902951595","category":"Other"},{"name":"FORMOSAT 7-1","line1":"1 44349U 19036L   26093.56009819  .00005254  00000+0  42883-3 0  9994","line2":"2 44349  23.9971 175.3831 0001045  46.6235 313.4353 14.96182574373463","category":"Other"},{"name":"ZHUHAI-1 03D","line1":"1 44538U 19060E   26093.93222194  .00057704  00000+0  11955-2 0  9997","line2":"2 44538  97.5295 240.7490 0008288 209.5569 150.5212 15.45525013364595","category":"Other"},{"name":"WREN-1","line1":"1 60478U 24149L   26093.73999555  .00032515  00000+0  84969-3 0  9991","line2":"2 60478  97.3783 177.2343 0005254 158.1080 202.0390 15.38695916 90862","category":"Other"},{"name":"MEGSAT-1","line1":"1 26546U 00057B   26093.93476425  .00005969  00000+0  42332-3 0  9990","line2":"2 26546  64.5502 306.9747 0039169 291.6800  68.0148 15.05074542386486","category":"Other"},{"name":"CP5","line1":"1 38763U 12048F   26093.92123104  .00022934  00000+0  79113-3 0  9997","line2":"2 38763  64.6475  37.6748 0092799 198.7053 161.0659 15.25893186105423","category":"Other"},{"name":"EXO-0","line1":"1 59175U 23174DK  26093.70868843  .00017225  00000+0  53439-3 0  9991","line2":"2 59175  97.3842 173.8737 0010514  79.2676 280.9749 15.33411459133626","category":"Other"},{"name":"CENTISPACE-1 S7","line1":"1 62576U 25007B   26093.73243418  .00000020  00000+0  15238-3 0  9995","line2":"2 62576  54.9759 192.3913 0010174 278.4331  81.5472 13.80575001 64430","category":"Other"},{"name":"FIREFLY-2","line1":"1 62704U 25009CZ  26093.86750453  .00002985  00000+0  29353-3 0  9991","line2":"2 62704  97.7043 173.3571 0004713 340.1092  19.9943 14.92864236 66239","category":"Other"},{"name":"ROADS 1","line1":"1 64535U 25135H   26093.84763601  .00013097  00000+0  58238-3 0  9992","line2":"2 64535  97.4583 209.4619 0005959  84.2421 275.9494 15.21615401 43554","category":"Other"},{"name":"JILIN-1 08","line1":"1 43160U 18008F   26093.95210607  .00016255  00000+0  51640-3 0  9998","line2":"2 43160  97.1864 115.2876 0005645 359.5064   0.6172 15.32699079453574","category":"Other"},{"name":"APRIZESAT 9","line1":"1 40018U 14033J   26093.81583432  .00001329  00000+0  20197-3 0  9994","line2":"2 40018  97.8933 228.8850 0067568  79.7238 281.1580 14.74129381632607","category":"Other"},{"name":"IONOSFERA-M 4","line1":"1 64877U 25155B   26093.94991574  .00000148  00000+0  87159-4 0  9994","line2":"2 64877  98.5962  57.6698 0001841  76.8586 283.2797 14.21475055 35851","category":"Other"},{"name":"GLOBAL-14","line1":"1 49469U 21106A   26093.47775645  .00040108  00000+0  76972-3 0  9993","line2":"2 49469  42.0064  13.8909 0015509 228.8086 131.1420 15.47127650246545","category":"Other"},{"name":"HJS-6B","line1":"1 63429U 25067B   26093.67839853  .00013892  00000+0  42191-3 0  9995","line2":"2 63429  54.9928 357.4960 0009722 129.3449 230.8441 15.34361646 56551","category":"Other"},{"name":"KINEIS-2A","line1":"1 62932U 25028E   26093.70042039  .00002224  00000+0  36079-3 0  9991","line2":"2 62932  98.0947 149.0784 0001512 127.7310 232.4034 14.72177105 61644","category":"Other"},{"name":"PIAST-S1","line1":"1 66749U 25276CM  26093.74981659  .00011732  00000+0  55574-3 0  9995","line2":"2 66749  97.4230 168.6321 0001860 187.1112 173.0097 15.19475091 19124","category":"Other"},{"name":"CAPELLA-8-WHITNEY","line1":"1 51071U 22002CR  23249.06545155  .35393296  25458-5  30023-2 0  9990","line2":"2 51071  97.4006 322.5782 0015575 273.5387 175.0653 16.38892911 91532","category":"Other"},{"name":"S-NET D","line1":"1 43186U 18014G   26093.69381682  .00010709  00000+0  56092-3 0  9990","line2":"2 43186  97.5416 358.9698 0006617 278.9795  81.0688 15.15968245447474","category":"Other"},{"name":"STAR VIBE","line1":"1 55009U 23001A   26093.91317292  .00027688  00000+0  67958-3 0  9997","line2":"2 55009  97.3236 158.1646 0006383  37.6150 322.5541 15.40638557180784","category":"Other"},{"name":"NINGXIA-1 2","line1":"1 44780U 19076B   26093.55896176 -.00000149  00000+0 -12422-4 0  9993","line2":"2 44780  45.0080 153.6785 0006851 165.2513 194.8522 14.02045565327386","category":"Other"},{"name":"JILIN-1 GAOFEN 03D14","line1":"1 51831U 22019H   26093.89821013  .00654236  18290-3  16489-2 0  9993","line2":"2 51831  97.3651 189.1336 0003178 261.2799  98.8117 15.95611052228479","category":"Other"},{"name":"H2SAT (HEINRICH HERTZ)","line1":"1 57213U 23093A   26093.93725448  .00000000  00000+0  00000+0 0  9995","line2":"2 57213   0.0136 201.9800 0001336 251.3451  77.0361  1.00269708 10170","category":"Other"},{"name":"TIGER-7","line1":"1 59141U 24043AV  26093.39111828  .00023535  00000+0  47098-3 0  9994","line2":"2 59141  97.5383 241.1789 0007592  88.1888 272.0230 15.46740783116406","category":"Other"},{"name":"BLUEWALKER-3","line1":"1 53807U 22111AL  26093.96096385  .00010557  00000+0  29313-3 0  9994","line2":"2 53807  53.2307  22.2080 0004926 326.4739  33.5953 15.37471575198780","category":"Other"},{"name":"STARLINK-11198 [DTC]","line1":"1 60114U 24118B   26093.22684029 -.00010458  00000+0 -81600-4 0  9999","line2":"2 60114  53.1565 100.5587 0001211  68.0928 292.0218 15.69699610101843","category":"Starlink"},{"name":"XINGYUN-2 02","line1":"1 45603U 20028B   26093.96940541  .00004792  00000+0  28850-3 0  9995","line2":"2 45603  97.5092 101.2755 0011541 159.2678 200.9022 15.11229967323627","category":"Other"},{"name":"CONNECTA IOT-12","line1":"1 64553U 25135AB  26093.79076112  .00005671  00000+0  25737-3 0  9997","line2":"2 64553  97.4677 209.9467 0000872 353.8133   6.3092 15.21199974 43561","category":"Other"},{"name":"YOUTHSAT","line1":"1 37388U 11015B   26093.97210896  .00000366  00000+0  17174-3 0  9996","line2":"2 37388  98.3631  71.3975 0014040 195.4087 234.3454 14.25598032777067","category":"Other"},{"name":"ARVAKER-1","line1":"1 63252U 25052AU  26093.69261324  .00004541  00000+0  42815-3 0  9991","line2":"2 63252  97.6954 346.4043 0003866 100.3218 259.8438 14.94273341 57483","category":"Other"},{"name":"HORYU-2","line1":"1 38340U 12025D   26093.26910471  .00006772  00000+0  69716-3 0  9991","line2":"2 38340  98.2053 223.2168 0009154  71.8480 288.3733 14.90602132737568","category":"Other"},{"name":"THE ARAB SATELLITE 813","line1":"1 66994U 25292B   26093.88791763  .00010785  00000+0  74432-3 0  9996","line2":"2 66994  97.6358 170.3629 0013721 249.6669 110.3084 15.05887832 17268","category":"Other"},{"name":"GOMX-1","line1":"1 39430U 13066Q   26093.82014675  .00004278  00000+0  64828-3 0  9999","line2":"2 39430  97.6538 298.9578 0128206 316.8788  42.2431 14.69202230658999","category":"Other"},{"name":"STARLINK-30871","line1":"1 58228U 23170Y   26093.57836742  .00004122  00000+0  15915-3 0  9992","line2":"2 58228  43.0062  53.8353 0001730 255.4402 104.6258 15.27594306134109","category":"Starlink"}]}